{"type": "FeatureCollection", "features": [ {"type": "Feature", "properties": {"norad_id": 29769, "name": "FENGYUN 1C DEB", "group": "fengyun-1c-debris", "lat": -8.833191196220241, "lon": 53.80007583282732, "alt_km": 880.6669125334911, "timestamp": "2025-12-20T22:39:10.898076+00:00", "meta": {"OBJECT_NAME": "FENGYUN 1C DEB", "OBJECT_ID": "1999-025BK", "EPOCH": "2025-12-19T14:25:07.379904", "MEAN_MOTION": 14.13562972, "ECCENTRICITY": 0.0093329, "INCLINATION": 99.1057, "RA_OF_ASC_NODE": 51.005, "ARG_OF_PERICENTER": 111.3794, "MEAN_ANOMALY": 249.7367, "EPHEMERIS_TYPE": 0, "CLASSIFICATION_TYPE": "U", "NORAD_CAT_ID": 29769, "ELEMENT_SET_NO": 999, "REV_AT_EPOCH": 96778, "BSTAR": 0.0010729, "MEAN_MOTION_DOT": 2.063e-05, "MEAN_MOTION_DDOT": 0}, "tle": {"line1": "1 29769U 99025BK  25353.60077986  .00002063  00000+0  10729-2 0  9990", "line2": "2 29769  99.1057  51.0050 0093329 111.3794 249.7367 14.13562972967784"}}, "geometry": {"type": "Point", "coordinates": [53.80007583282732, -8.833191196220241]}}, {"type": "Feature", "properties": {"norad_id": 29770, "name": "FENGYUN 1C DEB", "group": "fengyun-1c-debris", "lat": -26.185692887635422, "lon": 74.90638689429089, "alt_km": 826.888952154618, "timestamp": "2025-12-20T22:39:10.898086+00:00", "meta": {"OBJECT_NAME": "FENGYUN 1C DEB", "OBJECT_ID": "1999-025BL", "EPOCH": "2025-12-20T04:26:25.958688", "MEAN_MOTION": 14.20157335, "ECCENTRICITY": 0.00634687, "INCLINATION": 98.8463, "RA_OF_ASC_NODE": 69.7556, "ARG_OF_PERICENTER": 249.8369, "MEAN_ANOMALY": 165.5067, "EPHEMERIS_TYPE": 0, "CLASSIFICATION_TYPE": "U", "NORAD_CAT_ID": 29770, "ELEMENT_SET_NO": 999, "REV_AT_EPOCH": 97192, "BSTAR": 0.000978964, "MEAN_MOTION_DOT": 2.086e-05, "MEAN_MOTION_DDOT": 0}, "tle": {"line1": "1 29770U 99025BL  25354.18502267  .00002086  00000+0  97896-3 0  9997", "line2": "2 29770  98.8463  69.7556 0063468 249.8369 165.5067 14.20157335971920"}}, "geometry": {"type": "Point", "coordinates": [74.90638689429089, -26.185692887635422]}}, {"type": "Feature", "properties": {"norad_id": 29772, "name": "FENGYUN 1C DEB", "group": "fengyun-1c-debris", "lat": 66.0244528756604, "lon": 42.879903128484806, "alt_km": 966.4171896250919, "timestamp": "2025-12-20T22:39:10.898096+00:00", "meta": {"OBJECT_NAME": "FENGYUN 1C DEB", "OBJECT_ID": "1999-025BN", "EPOCH": "2025-12-17T20:35:52.099296", "MEAN_MOTION": 14.03229234, "ECCENTRICITY": 0.01377936, "INCLINATION": 98.3866, "RA_OF_ASC_NODE": 200.6611, "ARG_OF_PERICENTER": 276.0163, "MEAN_ANOMALY": 98.373, "EPHEMERIS_TYPE": 0, "CLASSIFICATION_TYPE": "U", "NORAD_CAT_ID": 29772, "ELEMENT_SET_NO": 999, "REV_AT_EPOCH": 96327, "BSTAR": 0.00087765197, "MEAN_MOTION_DOT": 1.448e-05, "MEAN_MOTION_DDOT": 0}, "tle": {"line1": "1 29772U 99025BN  25351.85824189  .00001448  00000+0  87765-3 0  9995", "line2": "2 29772  98.3866 200.6611 0137793 276.0163  98.3730 14.03229234963277"}}, "geometry": {"type": "Point", "coordinates": [42.879903128484806, 66.0244528756604]}}, {"type": "Feature", "properties": {"norad_id": 29773, "name": "FENGYUN 1C DEB", "group": "fengyun-1c-debris", "lat": 21.02370262832227, "lon": -27.734357685648867, "alt_km": 809.8307698724693, "timestamp": "2025-12-20T22:39:10.898105+00:00", "meta": {"OBJECT_NAME": "FENGYUN 1C DEB", "OBJECT_ID": "1999-025BP", "EPOCH": "2025-12-20T08:35:03.525216", "MEAN_MOTION": 14.27583393, "ECCENTRICITY": 0.00464311, "INCLINATION": 98.9876, "RA_OF_ASC_NODE": 148.1758, "ARG_OF_PERICENTER": 268.3179, "MEAN_ANOMALY": 119.8399, "EPHEMERIS_TYPE": 0, "CLASSIFICATION_TYPE": "U", "NORAD_CAT_ID": 29773, "ELEMENT_SET_NO": 999, "REV_AT_EPOCH": 98306, "BSTAR": 0.00027942972, "MEAN_MOTION_DOT": 6.48e-06, "MEAN_MOTION_DDOT": 0}, "tle": {"line1": "1 29773U 99025BP  25354.35767969  .00000648  00000+0  27943-3 0  9999", "line2": "2 29773  98.9876 148.1758 0046431 268.3179 119.8399 14.27583393983066"}}, "geometry": {"type": "Point", "coordinates": [-27.734357685648867, 21.02370262832227]}}, {"type": "Feature", "properties": {"norad_id": 29774, "name": "FENGYUN 1C DEB", "group": "fengyun-1c-debris", "lat": -17.398576466891026, "lon": -61.60978698731444, "alt_km": 837.9647704465042, "timestamp": "2025-12-20T22:39:10.898115+00:00", "meta": {"OBJECT_NAME": "FENGYUN 1C DEB", "OBJECT_ID": "1999-025BQ", "EPOCH": "2025-12-20T09:47:31.535232", "MEAN_MOTION": 14.22738143, "ECCENTRICITY": 0.00513085, "INCLINATION": 99.0774, "RA_OF_ASC_NODE": 294.9668, "ARG_OF_PERICENTER": 101.6776, "MEAN_ANOMALY": 18.2048, "EPHEMERIS_TYPE": 0, "CLASSIFICATION_TYPE": "U", "NORAD_CAT_ID": 29774, "ELEMENT_SET_NO": 999, "REV_AT_EPOCH": 98184, "BSTAR": 0.00012828437, "MEAN_MOTION_DOT": 2.45e-06, "MEAN_MOTION_DDOT": 0}, "tle": {"line1": "1 29774U 99025BQ  25354.40800388  .00000245  00000+0  12828-3 0  9998", "line2": "2 29774  99.0774 294.9668 0051308 101.6776  18.2048 14.22738143981844"}}, "geometry": {"type": "Point", "coordinates": [-61.60978698731444, -17.398576466891026]}}, {"type": "Feature", "properties": {"norad_id": 29776, "name": "FENGYUN 1C DEB", "group": "fengyun-1c-debris", "lat": 31.24290111794003, "lon": -153.1653545002093, "alt_km": 867.602838146573, "timestamp": "2025-12-20T22:39:10.898124+00:00", "meta": {"OBJECT_NAME": "FENGYUN 1C DEB", "OBJECT_ID": "1999-025BS", "EPOCH": "2025-12-20T01:44:28.992192", "MEAN_MOTION": 14.07779785, "ECCENTRICITY": 0.00228897, "INCLINATION": 98.7704, "RA_OF_ASC_NODE": 20.6148, "ARG_OF_PERICENTER": 249.2425, "MEAN_ANOMALY": 165.8741, "EPHEMERIS_TYPE": 0, "CLASSIFICATION_TYPE": "U", "NORAD_CAT_ID": 29776, "ELEMENT_SET_NO": 999, "REV_AT_EPOCH": 97183, "BSTAR": 0.00013344675, "MEAN_MOTION_DOT": 1.84e-06, "MEAN_MOTION_DDOT": 0}, "tle": {"line1": "1 29776U 99025BS  25354.07255778  .00000184  00000+0  13345-3 0  9997", "line2": "2 29776  98.7704  20.6148 0022889 249.2425 165.8741 14.07779785971831"}}, "geometry": {"type": "Point", "coordinates": [-153.1653545002093, 31.24290111794003]}}, {"type": "Feature", "properties": {"norad_id": 29777, "name": "FENGYUN 1C DEB", "group": "fengyun-1c-debris", "lat": 80.61669701963227, "lon": -46.426815012080645, "alt_km": 920.4962908618081, "timestamp": "2025-12-20T22:39:10.898134+00:00", "meta": {"OBJECT_NAME": "FENGYUN 1C DEB", "OBJECT_ID": "1999-025BT", "EPOCH": "2025-12-20T10:14:56.307840", "MEAN_MOTION": 13.92107415, "ECCENTRICITY": 0.00930178, "INCLINATION": 99.2824, "RA_OF_ASC_NODE": 51.2989, "ARG_OF_PERICENTER": 188.9231, "MEAN_ANOMALY": 194.705, "EPHEMERIS_TYPE": 0, "CLASSIFICATION_TYPE": "U", "NORAD_CAT_ID": 29777, "ELEMENT_SET_NO": 999, "REV_AT_EPOCH": 96148, "BSTAR": 5.5830969e-05, "MEAN_MOTION_DOT": 2.9e-07, "MEAN_MOTION_DDOT": 0}, "tle": {"line1": "1 29777U 99025BT  25354.42704060  .00000029  00000+0  55831-4 0  9995", "line2": "2 29777  99.2824  51.2989 0093017 188.9231 194.7050 13.92107415961481"}}, "geometry": {"type": "Point", "coordinates": [-46.426815012080645, 80.61669701963227]}}, {"type": "Feature", "properties": {"norad_id": 29779, "name": "FENGYUN 1C DEB", "group": "fengyun-1c-debris", "lat": -38.07510472989763, "lon": 12.805221777350297, "alt_km": 900.0730612941788, "timestamp": "2025-12-20T22:39:10.898144+00:00", "meta": {"OBJECT_NAME": "FENGYUN 1C DEB", "OBJECT_ID": "1999-025BV", "EPOCH": "2025-12-19T19:39:16.009920", "MEAN_MOTION": 14.1344871, "ECCENTRICITY": 0.00638146, "INCLINATION": 98.6768, "RA_OF_ASC_NODE": 4.8435, "ARG_OF_PERICENTER": 144.1255, "MEAN_ANOMALY": 216.4229, "EPHEMERIS_TYPE": 0, "CLASSIFICATION_TYPE": "U", "NORAD_CAT_ID": 29779, "ELEMENT_SET_NO": 999, "REV_AT_EPOCH": 97512, "BSTAR": 0.0001833252, "MEAN_MOTION_DOT": 3.09e-06, "MEAN_MOTION_DDOT": 0}, "tle": {"line1": "1 29779U 99025BV  25353.81893530  .00000309  00000+0  18333-3 0  9996", "line2": "2 29779  98.6768   4.8435 0063814 144.1255 216.4229 14.13448710975121"}}, "geometry": {"type": "Point", "coordinates": [12.805221777350297, -38.07510472989763]}}, {"type": "Feature", "properties": {"norad_id": 29780, "name": "FENGYUN 1C DEB", "group": "fengyun-1c-debris", "lat": -46.46111280327208, "lon": -73.81346859229913, "alt_km": 854.5292326429435, "timestamp": "2025-12-20T22:39:10.898154+00:00", "meta": {"OBJECT_NAME": "FENGYUN 1C DEB", "OBJECT_ID": "1999-025BW", "EPOCH": "2025-12-20T11:02:51.559008", "MEAN_MOTION": 14.2108871, "ECCENTRICITY": 0.00413456, "INCLINATION": 99.2786, "RA_OF_ASC_NODE": 275.7728, "ARG_OF_PERICENTER": 105.7272, "MEAN_ANOMALY": 254.847, "EPHEMERIS_TYPE": 0, "CLASSIFICATION_TYPE": "U", "NORAD_CAT_ID": 29780, "ELEMENT_SET_NO": 999, "REV_AT_EPOCH": 97188, "BSTAR": 0.0011497122, "MEAN_MOTION_DOT": 2.471e-05, "MEAN_MOTION_DDOT": 0}, "tle": {"line1": "1 29780U 99025BW  25354.46031897  .00002471  00000+0  11497-2 0  9995", "line2": "2 29780  99.2786 275.7728 0041345 105.7272 254.8470 14.21088710971883"}}, "geometry": {"type": "Point", "coordinates": [-73.81346859229913, -46.46111280327208]}}, {"type": "Feature", "properties": {"norad_id": 29781, "name": "FENGYUN 1C DEB", "group": "fengyun-1c-debris", "lat": 23.053732236040037, "lon": 172.64945792469578, "alt_km": 823.1076147778758, "timestamp": "2025-12-20T22:39:10.898164+00:00", "meta": {"OBJECT_NAME": "FENGYUN 1C DEB", "OBJECT_ID": "1999-025BX", "EPOCH": "2025-12-20T12:15:58.161312", "MEAN_MOTION": 14.0524448, "ECCENTRICITY": 0.00722144, "INCLINATION": 98.81, "RA_OF_ASC_NODE": 348.4447, "ARG_OF_PERICENTER": 151.4241, "MEAN_ANOMALY": 336.8344, "EPHEMERIS_TYPE": 0, "CLASSIFICATION_TYPE": "U", "NORAD_CAT_ID": 29781, "ELEMENT_SET_NO": 999, "REV_AT_EPOCH": 96752, "BSTAR": 0.00067979571, "MEAN_MOTION_DOT": 1.083e-05, "MEAN_MOTION_DDOT": 0}, "tle": {"line1": "1 29781U 99025BX  25354.51108983  .00001083  00000+0  67980-3 0  9990", "line2": "2 29781  98.8100 348.4447 0072214 151.4241 336.8344 14.05244480967525"}}, "geometry": {"type": "Point", "coordinates": [172.64945792469578, 23.053732236040037]}}]}